NORAD_CAT_ID,OBJECT_NAME,OBJECT_TYPE,EPOCH,MEAN_MOTION,ECCENTRICITY,INCLINATION,RA_OF_ASC_NODE,ARG_OF_PERICENTER,MEAN_ANOMALY,BSTAR,MEAN_MOTION_DOT,MEAN_MOTION_DDOT,TLE_LINE0,TLE_LINE1,TLE_LINE2,SEMIMAJOR_AXIS,PERIOD,APOGEE,PERIGEE,DECAYED
52460.0,STARLINK-3865,PAYLOAD,2023-10-15 13:51:35,15.08868434,0.0001281,53.2186,32.0929,90.0073,270.1066,0.0023237,0.00036916,0.0,0 STARLINK-3865,1 52460U 22049K   23288.57749271  .00036916  00000-0  23237-2 0  9993,2 52460  53.2186  32.0929 0001281  90.0073 270.1066 15.08868434 79982,6917.793,95.436,540.545,538.772,0.0
52460.0,STARLINK-3865,PAYLOAD,2023-10-16 12:06:59,15.08865814,0.0001288,53.2186,27.9305,97.2326,262.8812,0.0019107,0.00030273,0.0,0 STARLINK-3865,1 52460U 22049K   23289.50485252  .00030273  00000-0  19107-2 0  9994,2 52460  53.2186  27.9305 0001288  97.2326 262.8812 15.08865814 80281,6917.801,95.436,540.557,538.775,0.0
52460.0,STARLINK-3865,PAYLOAD,2023-10-16 13:42:22,15.08859925,0.0001377,53.2187,27.6312,72.998,287.1163,0.0014299,0.00022554,0.0,0 STARLINK-3865,1 52460U 22049K   23289.57109291  .00022554  00000-0  14299-2 0  9997,2 52460  53.2187  27.6312 0001377  72.9980 287.1163 15.08859925 80131,6917.819,95.436,540.637,538.732,0.0
52460.0,STARLINK-3865,PAYLOAD,2023-10-17 13:33:07,15.08838482,0.0001491,53.2184,23.1718,79.1804,280.9356,0.00085629,0.00013366,0.0,0 STARLINK-3865,1 52460U 22049K   23290.56467149  .00013366  00000-0  85629-3 0  9994,2 52460  53.2184  23.1718 0001491  79.1804 280.9356 15.08838482 80444,6917.885,95.438,540.781,538.719,0.0
52460.0,STARLINK-3865,PAYLOAD,2023-10-18 11:48:33,15.08822754,0.0002094,53.2179,19.0024,51.191,308.9269,0.00040533,6.166e-05,0.0,0 STARLINK-3865,1 52460U 22049K   23291.49205342  .00006166  00000-0  40533-3 0  9997,2 52460  53.2179  19.0024 0002094  51.1910 308.9269 15.08822754 80584,6917.933,95.439,541.247,538.349,0.0
52460.0,STARLINK-3865,PAYLOAD,2023-10-18 14:59:19,15.08829968,0.0001738,53.2185,18.4186,98.2748,261.8441,0.00085574,0.00013354,0.0,0 STARLINK-3865,1 52460U 22049K   23291.62453326  .00013354  00000-0  85574-3 0  9990,2 52460  53.2185  18.4186 0001738  98.2748 261.8441 15.08829968 80604,6917.911,95.438,540.978,538.574,0.0
52460.0,STARLINK-3865,PAYLOAD,2023-10-19 11:39:20,15.08867778,0.0001883,53.2182,14.5448,87.391,272.7297,0.0020378,0.00032318,0.0,0 STARLINK-3865,1 52460U 22049K   23292.48565351  .00032318  00000-0  20378-2 0  9998,2 52460  53.2182  14.5448 0001883  87.3910 272.7297 15.08867778 80577,6917.795,95.436,540.963,538.358,0.0
52460.0,STARLINK-3865,PAYLOAD,2023-10-19 22:47:02,15.08865898,0.000201,53.2178,12.4675,73.6812,286.4401,0.0015082,0.00023814,0.0,0 STARLINK-3865,1 52460U 22049K   23292.94933247  .00023814  00000-0  15082-2 0  9999,2 52460  53.2178  12.4675 0002010  73.6812 286.4401 15.08865898 80809,6917.801,95.436,541.057,538.276,0.0
52460.0,STARLINK-3865,PAYLOAD,2023-10-20 11:30:08,15.0881902,0.0001475,53.2196,10.0862,83.6961,276.42,0.0013421,0.00021124,0.0,0 STARLINK-3865,1 52460U 22049K   23293.47926055  .00021124  00000-0  13421-2 0  9994,2 52460  53.2196  10.0862 0001475  83.6961 276.4200 15.08819020 80881,6917.945,95.439,540.83,538.789,0.0
52460.0,STARLINK-3865,PAYLOAD,2023-10-21 11:20:55,15.08858759,0.0001423,53.2181,5.6287,87.1153,273.0002,0.0016223,0.00025638,0.0,0 STARLINK-3865,1 52460U 22049K   23294.47286377  .00025638  00000-0  16223-2 0  9998,2 52460  53.2181   5.6287 0001423  87.1153 273.0002 15.08858759 80875,6917.823,95.436,540.672,538.704,0.0
52460.0,STARLINK-3865,PAYLOAD,2023-10-21 22:28:37,15.08855054,0.0001567,53.2199,3.5459,90.5637,269.5535,0.00072131,0.00011215,0.0,0 STARLINK-3865,1 52460U 22049K   23294.93654168  .00011215  00000-0  72131-3 0  9993,2 52460  53.2199   3.5459 0001567  90.5637 269.5535 15.08855054 80940,6917.834,95.437,540.783,538.615,0.0
52460.0,STARLINK-3865,PAYLOAD,2023-10-22 04:50:09,15.08855214,0.0002334,53.2189,2.3561,90.9158,269.2102,0.00055877,8.62e-05,0.0,0 STARLINK-3865,1 52460U 22049K   23295.20150344  .00008620  00000-0  55877-3 0  9995,2 52460  53.2189   2.3561 0002334  90.9158 269.2102 15.08855214 81143,6917.834,95.437,541.314,538.084,0.0
52460.0,STARLINK-3865,PAYLOAD,2023-10-22 11:11:42,15.08846594,0.0001457,53.2189,1.1677,93.3354,266.7804,0.00026959,4.006e-05,0.0,0 STARLINK-3865,1 52460U 22049K   23295.46646179  .00004006  00000-0  26959-3 0  9992,2 52460  53.2189   1.1677 0001457  93.3354 266.7804 15.08846594 81027,6917.86,95.437,540.733,538.717,0.0
52460.0,STARLINK-3865,PAYLOAD,2023-10-23 09:27:05,15.0887564,0.0001462,53.2191,357.0045,95.4619,264.654,0.0011467,0.00018027,0.0,0 STARLINK-3865,1 52460U 22049K   23296.39381082  .00018027  00000-0  11467-2 0  9999,2 52460  53.2191 357.0045 0001462  95.4619 264.6540 15.08875640 81326,6917.771,95.435,540.648,538.625,0.0
52460.0,STARLINK-3865,PAYLOAD,2023-10-23 20:34:47,15.08855154,0.0001492,53.2193,354.9216,88.5494,271.5669,0.00094196,0.00014741,0.0,0 STARLINK-3865,1 52460U 22049K   23296.85748909  .00014741  00000-0  94196-3 0  9995,2 52460  53.2193 354.9216 0001492  88.5494 271.5669 15.08855154 81395,6917.834,95.437,540.731,538.667,0.0
52460.0,STARLINK-3865,PAYLOAD,2023-10-24 04:31:43,15.08858051,0.0003704,53.2193,353.4367,88.4325,271.7092,0.00057432,8.869e-05,0.0,0 STARLINK-3865,1 52460U 22049K   23297.18869609  .00008869  00000-0  57432-3 0  9999,2 52460  53.2193 353.4367 0003704  88.4325 271.7092 15.08858051 81443,6917.825,95.436,542.253,537.128,0.0
52460.0,STARLINK-3865,PAYLOAD,2023-10-24 10:53:15,15.08828992,0.0001552,53.2191,352.2476,106.9636,253.1527,1.0819e-05,-1.16e-06,0.0,0 STARLINK-3865,1 52460U 22049K   23297.45365715 -.00000116  00000-0  10819-4 0  9995,2 52460  53.2191 352.2476 0001552 106.9636 253.1527 15.08828992 81481,6917.914,95.438,540.853,538.705,0.0
52460.0,STARLINK-3865,PAYLOAD,2023-10-25 20:16:22,15.0884563,0.0001481,53.2183,346.0033,98.3962,261.7198,0.00075189,0.000117,0.0,0 STARLINK-3865,1 52460U 22049K   23298.84470824  .00011700  00000-0  75189-3 0  9997,2 52460  53.2183 346.0033 0001481  98.3962 261.7198 15.08845630 81699,6917.863,95.437,540.753,538.704,0.0
52460.0,STARLINK-3865,PAYLOAD,2023-10-26 10:34:51,15.08846905,0.0001673,53.2184,343.3254,93.1187,266.9997,0.00050176,7.708e-05,0.0,0 STARLINK-3865,1 52460U 22049K   23299.44086824  .00007708  00000-0  50176-3 0  9999,2 52460  53.2184 343.3254 0001673  93.1187 266.9997 15.08846905 81780,6917.859,95.437,540.882,538.567,0.0
52460.0,STARLINK-3865,PAYLOAD,2023-10-26 20:07:09,15.08849582,0.0001556,53.2171,341.5418,96.6158,263.5011,0.0003654,5.534e-05,0.0,0 STARLINK-3865,1 52460U 22049K   23299.83830574  .00005534  00000-0  36540-3 0  9995,2 52460  53.2171 341.5418 0001556  96.6158 263.5011 15.08849582 81687,6917.851,95.437,540.793,538.64,0.0
52460.0,STARLINK-3865,PAYLOAD,2023-10-27 10:25:37,15.0886727,0.0001687,53.2165,338.8653,98.5255,261.5928,0.00064163,9.946e-05,0.0,0 STARLINK-3865,1 52460U 22049K   23300.43445785  .00009946  00000-0  64163-3 0  9993,2 52460  53.2165 338.8653 0001687  98.5255 261.5928 15.08867270 81773,6917.797,95.436,540.829,538.495,0.0
52460.0,STARLINK-3865,PAYLOAD,2023-10-27 19:57:56,15.08845971,0.0001861,53.2178,337.08,86.54,273.5805,9.3306e-05,1.197e-05,0.0,0 STARLINK-3865,1 52460U 22049K   23300.83190284  .00001197  00000-0  93306-4 0  9990,2 52460  53.2178 337.0800 0001861  86.5400 273.5805 15.08845971 81990,6917.862,95.437,541.015,538.44,0.0
52460.0,STARLINK-3865,PAYLOAD,2023-10-28 11:51:48,15.08836137,0.0001711,53.2162,334.1052,92.7955,267.3233,9.8626e-05,1.282e-05,0.0,0 STARLINK-3865,1 52460U 22049K   23301.49430748  .00001282  00000-0  98626-4 0  9990,2 52460  53.2162 334.1052 0001711  92.7955 267.3233 15.08836137 82090,6917.892,95.438,540.941,538.574,0.0
52460.0,STARLINK-3865,PAYLOAD,2023-10-28 19:48:43,15.08841,0.0001711,53.2165,332.619,91.0939,269.0249,0.00039589,6.018e-05,0.0,0 STARLINK-3865,1 52460U 22049K   23301.82550873  .00006018  00000-0  39589-3 0  9993,2 52460  53.2165 332.6190 0001711  91.0939 269.0249 15.08841000 81981,6917.877,95.437,540.926,538.559,0.0
52460.0,STARLINK-3865,PAYLOAD,2023-10-29 11:42:34,15.08869023,0.0001776,53.2159,329.6453,88.8674,271.2521,0.0012927,0.00020362,0.0,0 STARLINK-3865,1 52460U 22049K   23302.48790342  .00020362  00000-0  12927-2 0  9997,2 52460  53.2159 329.6453 0001776  88.8674 271.2521 15.08869023 82246,6917.792,95.436,540.885,538.428,0.0
52460.0,STARLINK-3865,PAYLOAD,2023-10-30 05:11:49,15.08848519,0.0001758,53.2168,326.3733,100.2917,259.8273,0.00037909,5.752e-05,0.0,0 STARLINK-3865,1 52460U 22049K   23303.21654552  .00005752  00000-0  37909-3 0  9995,2 52460  53.2168 326.3733 0001758 100.2917 259.8273 15.08848519 82355,6917.854,95.437,540.936,538.503,0.0
52460.0,STARLINK-3865,PAYLOAD,2023-10-30 08:22:35,15.08848485,0.0001764,53.2168,325.7784,101.6487,258.4703,0.00045059,6.892e-05,0.0,0 STARLINK-3865,1 52460U 22049K   23303.34902549  .00006892  00000-0  45059-3 0  9992,2 52460  53.2168 325.7784 0001764 101.6487 258.4703 15.08848485 82218,6917.854,95.437,540.94,538.499,0.0
52460.0,STARLINK-3865,PAYLOAD,2023-10-31 05:02:37,15.08828269,0.000198,53.2174,321.9147,99.6582,260.4634,-0.00010218,-1.914e-05,0.0,0 STARLINK-3865,1 52460U 22049K   23304.21015613 -.00001914  00000-0 -10218-3 0  9997,2 52460  53.2174 321.9147 0001980  99.6582 260.4634 15.08828269 82504,6917.916,95.438,541.151,538.411,0.0
52460.0,STARLINK-3865,PAYLOAD,2023-10-31 08:13:23,15.0883321,0.0001854,53.218,321.3231,90.2014,269.9191,-3.725e-05,-8.81e-06,0.0,0 STARLINK-3865,1 52460U 22049K   23304.34263682 -.00000881  00000-0 -37250-4 0  9990,2 52460  53.2180 321.3231 0001854  90.2014 269.9191 15.08833210 82364,6917.901,95.438,541.049,538.484,0.0
52460.0,STARLINK-3865,PAYLOAD,2023-10-31 17:45:42,15.08837122,0.0001853,53.2182,319.5389,93.3025,266.8179,-5.8857e-05,-1.225e-05,0.0,0 STARLINK-3865,1 52460U 22049K   23304.74007627 -.00001225  00000-0 -58857-4 0  9998,2 52460  53.2182 319.5389 0001853  93.3025 266.8179 15.08837122 82429,6917.889,95.438,541.036,538.472,0.0
